BEIJING 1               
1 28890U 05043A   26061.83518681  .00000650  00000+0  13483-3 0  9996
2 28890  98.2712 194.5654 0013385 253.5301 106.4430 14.63452947 85096
HUANJING 1A (HJ-1A)     
1 33320U 08041A   26061.89121310  .00001214  00000+0  15260-3 0  9998
2 33320  97.6618  51.8989 0020292 124.2890 236.0250 14.83690235942645
HUANJING 1B (HJ-1B)     
1 33321U 08041B   26061.88167553  .00001741  00000+0  21766-3 0  9990
2 33321  97.6468  55.3717 0036525 169.8558 190.3401 14.83083028942656
YAOGAN-4                
1 33446U 08061A   26061.77020872  .00001661  00000+0  21090-3 0  9991
2 33446  97.9243 356.1272 0015698  60.0888 300.1883 14.82952036929891
DEIMOS-1                
1 35681U 09041A   26061.82929039  .00001189  00000+0  18333-3 0  9993
2 35681  97.7237 223.7515 0001928 128.6454 231.4928 14.75103231891201
UK-DMC 2                
1 35683U 09041C   26061.85609809  .00001015  00000+0  15521-3 0  9992
2 35683  97.8633 199.5432 0001072  87.1151 273.0181 14.75831595890882
DMC3-FM1                
1 40715U 15032A   26061.85824712  .00001435  00000+0  17179-3 0  9990
2 40715  97.6630 291.1093 0006832  52.3372 307.8462 14.85601295574126
DMC3-FM2                
1 40716U 15032B   26061.88059703  .00001235  00000+0  14860-3 0  9996
2 40716  97.6688 292.6317 0007472  56.0426 304.1499 14.85605733574128
DMC3-FM3                
1 40717U 15032C   26061.90362900  .00000452  00000+0  58189-4 0  9999
2 40717  97.6740 294.3378 0006778  56.5467 303.6395 14.85566008574133
