[{"OBJECT_NAME":"BEIJING 1","OBJECT_ID":"2005-043A","EPOCH":"2026-03-02T20:02:40.140384","MEAN_MOTION":14.63452947,"ECCENTRICITY":0.0013385,"INCLINATION":98.2712,"RA_OF_ASC_NODE":194.5654,"ARG_OF_PERICENTER":253.5301,"MEAN_ANOMALY":106.443,"EPHEMERIS_TYPE":0,"CLASSIFICATION_TYPE":"U","NORAD_CAT_ID":28890,"ELEMENT_SET_NO":999,"REV_AT_EPOCH":8509,"BSTAR":0.00013483,"MEAN_MOTION_DOT":6.5e-6,"MEAN_MOTION_DDOT":0},{"OBJECT_NAME":"HUANJING 1A (HJ-1A)","OBJECT_ID":"2008-041A","EPOCH":"2026-03-02T21:23:20.811840","MEAN_MOTION":14.83690235,"ECCENTRICITY":0.0020292,"INCLINATION":97.6618,"RA_OF_ASC_NODE":51.8989,"ARG_OF_PERICENTER":124.289,"MEAN_ANOMALY":236.025,"EPHEMERIS_TYPE":0,"CLASSIFICATION_TYPE":"U","NORAD_CAT_ID":33320,"ELEMENT_SET_NO":999,"REV_AT_EPOCH":94264,"BSTAR":0.0001526,"MEAN_MOTION_DOT":1.214e-5,"MEAN_MOTION_DDOT":0},{"OBJECT_NAME":"HUANJING 1B (HJ-1B)","OBJECT_ID":"2008-041B","EPOCH":"2026-03-02T21:09:36.765792","MEAN_MOTION":14.83083028,"ECCENTRICITY":0.0036525,"INCLINATION":97.6468,"RA_OF_ASC_NODE":55.3717,"ARG_OF_PERICENTER":169.8558,"MEAN_ANOMALY":190.3401,"EPHEMERIS_TYPE":0,"CLASSIFICATION_TYPE":"U","NORAD_CAT_ID":33321,"ELEMENT_SET_NO":999,"REV_AT_EPOCH":94265,"BSTAR":0.00021766,"MEAN_MOTION_DOT":1.741e-5,"MEAN_MOTION_DDOT":0},{"OBJECT_NAME":"YAOGAN-4","OBJECT_ID":"2008-061A","EPOCH":"2026-03-02T18:29:06.033408","MEAN_MOTION":14.82952036,"ECCENTRICITY":0.0015698,"INCLINATION":97.9243,"RA_OF_ASC_NODE":356.1272,"ARG_OF_PERICENTER":60.0888,"MEAN_ANOMALY":300.1883,"EPHEMERIS_TYPE":0,"CLASSIFICATION_TYPE":"U","NORAD_CAT_ID":33446,"ELEMENT_SET_NO":999,"REV_AT_EPOCH":92989,"BSTAR":0.0002109,"MEAN_MOTION_DOT":1.661e-5,"MEAN_MOTION_DDOT":0},{"OBJECT_NAME":"DEIMOS-1","OBJECT_ID":"2009-041A","EPOCH":"2026-03-02T19:54:10.689696","MEAN_MOTION":14.75103231,"ECCENTRICITY":0.0001928,"INCLINATION":97.7237,"RA_OF_ASC_NODE":223.7515,"ARG_OF_PERICENTER":128.6454,"MEAN_ANOMALY":231.4928,"EPHEMERIS_TYPE":0,"CLASSIFICATION_TYPE":"U","NORAD_CAT_ID":35681,"ELEMENT_SET_NO":999,"REV_AT_EPOCH":89120,"BSTAR":0.00018333,"MEAN_MOTION_DOT":1.189e-5,"MEAN_MOTION_DDOT":0},{"OBJECT_NAME":"UK-DMC 2","OBJECT_ID":"2009-041C","EPOCH":"2026-03-02T20:32:46.874976","MEAN_MOTION":14.75831595,"ECCENTRICITY":0.0001072,"INCLINATION":97.8633,"RA_OF_ASC_NODE":199.5432,"ARG_OF_PERICENTER":87.1151,"MEAN_ANOMALY":273.0181,"EPHEMERIS_TYPE":0,"CLASSIFICATION_TYPE":"U","NORAD_CAT_ID":35683,"ELEMENT_SET_NO":999,"REV_AT_EPOCH":89088,"BSTAR":0.00015521,"MEAN_MOTION_DOT":1.015e-5,"MEAN_MOTION_DDOT":0},{"OBJECT_NAME":"DMC3-FM1","OBJECT_ID":"2015-032A","EPOCH":"2026-03-02T20:35:52.551168","MEAN_MOTION":14.85601295,"ECCENTRICITY":0.0006832,"INCLINATION":97.663,"RA_OF_ASC_NODE":291.1093,"ARG_OF_PERICENTER":52.3372,"MEAN_ANOMALY":307.8462,"EPHEMERIS_TYPE":0,"CLASSIFICATION_TYPE":"U","NORAD_CAT_ID":40715,"ELEMENT_SET_NO":999,"REV_AT_EPOCH":57412,"BSTAR":0.00017179,"MEAN_MOTION_DOT":1.435e-5,"MEAN_MOTION_DDOT":0},{"OBJECT_NAME":"DMC3-FM2","OBJECT_ID":"2015-032B","EPOCH":"2026-03-02T21:08:03.583392","MEAN_MOTION":14.85605733,"ECCENTRICITY":0.0007472,"INCLINATION":97.6688,"RA_OF_ASC_NODE":292.6317,"ARG_OF_PERICENTER":56.0426,"MEAN_ANOMALY":304.1499,"EPHEMERIS_TYPE":0,"CLASSIFICATION_TYPE":"U","NORAD_CAT_ID":40716,"ELEMENT_SET_NO":999,"REV_AT_EPOCH":57412,"BSTAR":0.0001486,"MEAN_MOTION_DOT":1.235e-5,"MEAN_MOTION_DDOT":0},{"OBJECT_NAME":"DMC3-FM3","OBJECT_ID":"2015-032C","EPOCH":"2026-03-02T21:41:13.545600","MEAN_MOTION":14.85566008,"ECCENTRICITY":0.0006778,"INCLINATION":97.674,"RA_OF_ASC_NODE":294.3378,"ARG_OF_PERICENTER":56.5467,"MEAN_ANOMALY":303.6395,"EPHEMERIS_TYPE":0,"CLASSIFICATION_TYPE":"U","NORAD_CAT_ID":40717,"ELEMENT_SET_NO":999,"REV_AT_EPOCH":57413,"BSTAR":5.8189e-5,"MEAN_MOTION_DOT":4.52e-6,"MEAN_MOTION_DDOT":0}]
